[{"OBJECT_NAME":"STARLINK-5724","OBJECT_ID":"2023-061BF","EPOCH":"2026-03-09T07:42:09.860544","MEAN_MOTION":15.02532142,"ECCENTRICITY":0.00014253,"INCLINATION":43.0032,"RA_OF_ASC_NODE":173.9255,"ARG_OF_PERICENTER":258.3214,"MEAN_ANOMALY":101.7468,"EPHEMERIS_TYPE":0,"CLASSIFICATION_TYPE":"U","NORAD_CAT_ID":56427,"ELEMENT_SET_NO":999,"REV_AT_EPOCH":15699,"BSTAR":-3.2782954e-5,"MEAN_MOTION_DOT":-6.46e-6,"MEAN_MOTION_DDOT":0},{"OBJECT_NAME":"OBJECT C","OBJECT_ID":"2024-205C","EPOCH":"2026-03-08T05:00:29.089728","MEAN_MOTION":15.13448144,"ECCENTRICITY":0.00443832,"INCLINATION":97.4204,"RA_OF_ASC_NODE":141.0161,"ARG_OF_PERICENTER":341.9375,"MEAN_ANOMALY":18.0277,"EPHEMERIS_TYPE":0,"CLASSIFICATION_TYPE":"U","NORAD_CAT_ID":61896,"ELEMENT_SET_NO":999,"REV_AT_EPOCH":7297,"BSTAR":0.00067176952,"MEAN_MOTION_DOT":0.00012247,"MEAN_MOTION_DDOT":0}]
