STARLINK-5724           
1 56427U 23061BF  26068.32094746 -.00000646  00000+0 -32783-4 0  9997
2 56427  43.0032 173.9255 0001425 258.3214 101.7468 15.02532142156999
2024-205C               
1 61896U 24205C   26067.20867002  .00012247  00000+0  67177-3 0  9995
2 61896  97.4204 141.0161 0044383 341.9375  18.0277 15.13448144 72971
